C/2024 F2 (PANSTARRS),e,13.7448,138.9390,112.8689,9.945492,0.0314242,0.60114146,19.2349,04/02.0/2026,2000,g 11.0,4.0
# From MPEC 2026-E44
P/2024 FG9 (Nanshan-Hahn),e,1.7310,253.0372,245.9551,3.258138,0.1675907,0.51001660,114.2089,04/02.0/2026,2000,g 14.0,4.0
# From MPEC 2026-E44
C/2024 G1 (Wierzchos),e,95.3817,30.6039,128.2200,121.9787,0.0007316,0.96778095,0.3863,04/02.0/2026,2000,g 10.0,4.0
# From MPEC 2026-FR0
C/2024 G2 (ATLAS),e,122.1197,171.3991,328.7545,697.1814,0.0000535,0.99232835,0.0000,06/13.6550/2025,2000,g  7.0,4.0
# From MPEC 2026-E44
C/2024 G3 (ATLAS),h,01/13.4232/2025,116.8435,220.4230,108.1729,1.000008,0.093671,2000,9.0,4.0
# From MPEC 2026-E44
C/2024 G4 (PANSTARRS),e,33.0288,152.9722,131.4097,3511,0.0000047,0.99860414,0.0000,03/21.4673/2026,2000,g  8.0,4.0
# From MPEC 2026-E44
C/2024 G5 (Leonard),e,50.3892,316.3836,209.6067,615.8457,0.0000645,0.99520403,0.0000,09/07.1602/2024,2000,g 13.0,4.0
# From MPEC 2026-FR0
C/2024 G6 (ATLAS),h,02/20.5604/2026,120.4495,250.9498,23.4210,1.001604,6.430016,2000,5.5,4.0
# From MPEC 2026-FR0
C/2024 G7 (ATLAS),h,02/09.9356/2025,131.5073,191.9737,289.6498,1.001567,6.027353,2000,7.0,4.0
# From MPEC 2026-E44
P/2024 J1 (PANSTARRS),e,13.1634,321.9369,200.3788,3.809054,0.1325801,0.30779137,115.6768,04/02.0/2026,2000,g 14.5,4.0
# From MPC191588
C/2024 J2 (Wierzchos),e,79.3002,189.0637,143.1462,146.6946,0.0005547,0.98765374,0.0000,03/19.7449/2025,2000,g 11.5,4.0
# From MPEC 2026-FR0
C/2024 J3 (ATLAS),h,11/25.4090/2026,75.6410,285.9612,74.0896,1.000237,3.865458,2000,5.0,4.0
# From MPEC 2026-FR0
C/2024 J4 (Lemmon),e,117.5198,19.3132,127.8547,5111,0.0000027,0.99888569,0.0000,04/25.9227/2025,2000,g  8.0,4.0
# From MPEC 2026-E44
P/2024 K1 (PANSTARRS),e,1.8204,251.6029,349.3670,6.834222,0.0551659,0.49069109,39.0320,04/02.0/2026,2000,g 13.5,4.0
# From MPEC 2026-E44
C/2024 L1 (PANSTARRS),e,99.1540,45.1369,171.7775,11.46193,0.0253990,0.53341585,8.7381,04/02.0/2026,2000,g 10.0,4.0
# From MPEC 2026-E44
C/2024 L2 (PANSTARRS),h,06/16.9611/2025,139.5833,266.1805,345.8612,1.004995,8.326090,2000,7.5,3.2
# From MPEC 2026-E44
C/2024 L3 (PANSTARRS),h,11/23.5447/2023,111.5919,295.0047,59.0462,1.003526,6.857658,2000,9.5,4.0
# From MPEC 2026-FR0
C/2024 L5 (ATLAS),h,03/10.5893/2025,166.5755,139.1761,290.5610,1.037428,3.433772,2000,9.0,4.0
# From MPEC 2026-E44
C/2024 M1 (ATLAS),e,73.7091,76.2182,345.5966,29.76099,0.0060706,0.94274904,3.0234,04/02.0/2026,2000,g 12.0,4.0
# From MPEC 2026-E44
C/2024 N1 (PANSTARRS),h,10/18.9216/2025,88.7810,323.0262,91.2620,1.000964,4.398544,2000,10.5,4.0
# From MPEC 2026-FR0
C/2024 N3 (Sarneczky),h,04/11.5840/2025,88.7272,82.6121,86.8987,1.002099,5.014757,2000,8.0,4.0
# From MPEC 2026-FC3
C/2024 N4 (Sarneczky),h,01/10.4425/2025,49.7880,339.6471,116.7512,1.003695,5.399033,2000,7.5,4.0
# From MPEC 2026-E44
C/2024 O1 (PANSTARRS),e,59.0826,303.3471,349.8384,250644,0.0000000,0.99997365,0.0000,01/27.9193/2023,2000,g  8.5,4.0
# From MPEC 2026-E44
P/2024 O2 (PANSTARRS),e,28.9802,6.8097,310.7509,7.375330,0.0492076,0.49866067,35.0431,04/02.0/2026,2000,g 12.0,4.0
# From MPEC 2026-E44
C/2024 PN7 (PANSTARRS),e,101.2036,358.5842,74.2682,66.75189,0.0018072,0.97715945,0.0000,12/06.3822/2024,2000,g 15.2,4.0
# From MPEC 2026-E44
C/2024 Q3 (PANSTARRS),h,03/05.1882/2025,121.3788,337.2881,70.1316,1.001287,2.091865,2000,15.0,4.0
# From MPEC 2026-E44
C/2024 Q4 (PANSTARRS),e,3.3173,324.2638,133.0436,508.7656,0.0000859,0.98934668,0.0000,11/11.7404/2024,2000,g 10.0,4.0
# From MPEC 2026-E44
P/2024 R2 (PANSTARRS),e,15.1225,192.9687,203.7965,3.146630,0.1765776,0.26877191,96.7189,04/02.0/2026,2000,g 15.5,4.0
# From MPEC 2026-E44
P/2024 R3 (PANSTARRS),e,14.6979,32.9590,309.6810,3.202460,0.1719802,0.26847155,119.0719,04/02.0/2026,2000,g 15.0,4.0
# From MPEC 2026-FR0
C/2024 R4 (PANSTARRS),h,10/26.7685/2027,95.3767,345.9441,109.0083,1.002347,4.408595,2000,6.5,4.0
# From MPEC 2026-E44
P/2024 S2 (Rankin),e,7.5251,8.3173,49.1922,5.011245,0.0878589,0.59150640,49.4429,04/02.0/2026,2000,g 15.0,4.0
# From MPEC 2026-E44
P/2024 T1 (Rankin),e,17.6201,279.7098,164.8790,6.598160,0.0581527,0.65328741,31.9054,04/02.0/2026,2000,g 14.5,4.0
# From MPEC 2026-E44
P/2024 T2 (Rankin),e,12.9289,113.0593,343.8502,6.172442,0.0642715,0.68036362,30.8291,04/02.0/2026,2000,g 16.0,4.0
# From MPEC 2026-E43
C/2024 T3 (PANSTARRS),e,53.4088,74.8062,336.9006,88.20686,0.0011897,0.95787086,0.4554,04/02.0/2026,2000,g 11.5,4.0
# From MPEC 2026-FR0
C/2024 T5 (ATLAS),h,05/06.2771/2027,52.3872,100.6782,352.4709,1.002187,3.839952,2000,5.5,4.0
# From MPEC 2026-E44
C/2024 U1 (PANSTARRS),e,128.7562,270.2674,188.1180,487.8054,0.0000915,0.99008277,0.0000,06/30.6439/2024,2000,g 10.0,4.0
# From MPEC 2026-E44
A/2024 U2,h,01/15.5866/2026,120.6706,56.0742,29.8440,1.003257,8.178983,2000,12.1,2.0
# From MPEC 2026-E44
C/2024 V1 (Borisov),e,54.6244,328.1911,168.6830,232.2638,0.0002784,0.99001639,0.0000,04/04.1292/2025,2000,g 14.8,4.0
# From MPEC 2026-E44
C/2024 W1 (PANSTARRS),e,83.2040,310.7245,256.7481,45.18369,0.0032451,0.94332308,1.2294,04/02.0/2026,2000,g 15.0,4.0
# From MPEC 2026-E44
A/2024 W2,h,02/27.4543/2025,116.6132,241.9389,168.0187,1.002149,3.721175,2000,15.6,2.0
# From MPEC 2026-FR0
C/2024 X1 (Fazekas),e,6.4726,351.9224,124.3602,9.400579,0.0341958,0.59401835,8.2762,04/02.0/2026,2000,g 11.3,4.0
# From MPEC 2026-FR0
C/2024 X2 (ATLAS),e,109.2676,122.5169,315.7883,52.84562,0.0025656,0.93044944,0.6873,04/02.0/2026,2000,g  9.6,4.0
# From MPC191589
P/2024 X3 (PANSTARRS),e,2.9723,113.3628,352.9834,6.996118,0.0532621,0.62619108,30.5274,04/02.0/2026,2000,g 14.6,4.0
# From MPEC 2026-E44
C/2024 X4 (PANSTARRS),e,34.6550,258.9448,153.3413,10.10298,0.0306923,0.64319461,6.5006,04/02.0/2026,2000,g 12.6,4.0
# From MPEC 2026-E44
C/2024 XK14 (Bok),e,109.2103,239.0932,243.4962,17.02313,0.0140328,0.87900846,4.4352,04/02.0/2026,2000,g 15.5,4.0
# From MPEC 2026-FR0
C/2025 A1 (Lemmon),h,03/14.3993/2027,33.4133,101.3207,68.2664,1.000906,5.337564,2000,7.2,4.0
# From MPEC 2026-E44
P/2025 A2 (PANSTARRS),e,20.7340,189.3187,278.0711,5.083289,0.0859977,0.32188359,46.7214,04/02.0/2026,2000,g 13.2,4.0
# From MPEC 2026-E44
C/2025 A3 (Tsuchinshan),e,9.9760,322.4300,222.3528,10.20136,0.0302494,0.43222256,0.5285,04/02.0/2026,2000,g  9.0,4.0
# From MPEC 2026-E44
C/2025 A4 (PANSTARRS),e,32.0225,69.9163,102.8179,11.06759,0.0267685,0.65444019,11.8763,04/02.0/2026,2000,g 12.4,4.0
# From MPEC 2026-FR0
C/2025 A6 (Lemmon),e,143.6629,108.0985,132.9623,122.8909,0.0007235,0.99568823,0.0000,11/08.5371/2025,2000,g 13.2,4.0
# From MPEC 2026-E44
A/2025 A7,e,133.6558,348.8631,195.5806,2788,0.0000067,0.99896590,0.0000,03/28.0698/2025,2000,g 14.9,2.0
# From MPEC 2026-E44
C/2025 B1 (PANSTARRS),e,39.6647,102.8457,23.5524,18992,0.0000004,0.99981414,0.0000,06/26.8080/2025,2000,g 12.0,4.0
# From MPEC 2026-E44
C/2025 B2 (Borisov),h,09/11.8854/2026,91.7453,84.8682,78.8671,1.002202,8.238832,2000,6.2,4.0
# From MPEC 2026-E44
P/2025 C1 (ATLAS),e,7.5166,9.0915,186.8226,4.197119,0.1146244,0.34574667,48.0682,04/02.0/2026,2000,g 10.8,4.0
# From MPEC 2026-EC7
C/2025 D1 (Groeller),h,05/22.0129/2028,84.4506,312.9031,185.9458,1.003116,14.116488,2000,1.2,4.0
# From MPEC 2026-FC5
P/2025 D2 (PANSTARRS),e,5.3584,257.1825,317.8222,8.711426,0.0383328,0.14847000,318.8576,04/02.0/2026,2000,g  8.2,4.0
# From MPEC 2026-E44
P/2025 D3 (PANSTARRS),e,9.6423,186.6318,294.5581,3.968491,0.1246712,0.25247356,76.6622,04/02.0/2026,2000,g 14.7,4.0
# From MPEC 2026-E44
P/2025 D4 (ATLAS),e,15.9382,233.1157,332.8950,8.911483,0.0370492,0.63476455,15.2519,04/02.0/2026,2000,g 13.2,4.0
# From MPEC 2026-E44
C/2025 D6 (ATLAS),e,145.8179,151.5028,285.4652,1274,0.0000217,0.99803256,0.0000,12/11.4042/2024,2000,g 13.2,4.0
# From MPEC 2026-FR0
C/2025 E1 (PANSTARRS),e,69.0598,344.5908,274.4226,1661,0.0000146,0.99759281,0.0000,09/23.7089/2026,2000,g  9.7,4.0
# From MPEC 2026-E44
C/2025 F2 (SWAN),h,05/01.1495/2025,90.3725,329.8252,153.8444,1.000142,0.333693,2000,11.2,4.0
# From MPEC 2026-FR0
C/2025 J1 (Borisov),e,95.4405,273.9794,166.6202,1589,0.0000156,0.99774638,0.0000,06/11.7691/2026,2000,g  9.1,4.0
# From MPC191590
C/2025 K1 (ATLAS),h,10/08.4385/2025,147.8638,97.5572,271.0176,1.000241,0.334167,2000,12.2,4.0
# From MPC191590
C/2025 K1-B,h,10/08.4504/2025,147.9163,97.6391,271.3180,1.001974,0.335715,2000,14.7,4.0
# From MPC191590
C/2025 K1-C,e,147.8463,97.5291,270.9164,1430,0.0000182,0.99976670,0.0000,10/08.4372/2025,2000,g 14.0,4.0
# From MPEC 2026-E44
C/2025 K1-D,h,10/08.4572/2025,147.9553,97.7026,271.5411,1.003100,0.336881,2000,14.0,4.0
# From MPEC 2026-E44
C/2025 K2 (PANSTARRS),e,113.9794,113.8294,232.4620,25.28498,0.0077519,0.88674411,1.2302,04/02.0/2026,2000,g 13.7,4.0
# From MPEC 2026-FC3
C/2025 K3 (PANSTARRS),h,12/14.1594/2028,104.9363,350.6460,188.6115,1.001347,3.469341,2000,6.4,4.0
# From MPC191590
C/2025 K4 (Siverd),e,38.5445,297.0825,326.9229,43.35260,0.0034529,0.94159493,0.8555,04/02.0/2026,2000,g 14.1,4.0
# From MPEC 2026-FC3
C/2025 L1 (ATLAS),h,01/12.7363/2026,114.1358,208.1102,341.2516,1.001475,1.679679,2000,11.4,4.0
# From MPEC 2026-FC3
C/2025 L2 (MAPS),e,86.5843,134.9867,232.6413,481.9992,0.0000931,0.99412102,0.0000,12/20.6578/2025,2000,g 11.7,4.0
# From MPEC 2026-E44
C/2025 M1 (PANSTARRS),e,64.8893,66.9577,230.3960,5275,0.0000026,0.99794639,0.0000,08/02.6978/2029,2000,g  2.9,4.0
# From MPEC 2026-E44
C/2025 M2 (PANSTARRS),h,11/23.4790/2027,173.2153,305.5342,96.7568,1.001931,2.720738,2000,13.4,4.0
# From MPEC 2026-E44
C/2025 M3 (PANSTARRS),h,07/05.1038/2026,137.4221,65.2656,195.3713,1.019245,6.532000,2000,9.0,4.0
# From MPC191591
C/2025 N2 (ATLAS),h,12/10.6310/2024,81.6647,94.4627,230.0062,1.001605,8.982741,2000,5.1,4.0
# From MPEC 2026-E44
C/2025 O2 (MAPS),e,134.5455,332.3113,280.2525,2738,0.0000069,0.99916420,0.0000,05/23.7393/2025,2000,g 14.3,4.0
# From MPEC 2026-FR1
A/2025 O4,e,144.2436,68.6463,151.9547,187.2101,0.0003848,0.98300960,0.0000,06/10.1216/2025,2000,g 15.4,2.0
# From MPEC 2026-E44
A/2025 P1,e,117.7972,342.4228,334.5237,56.78279,0.0023035,0.96168531,0.8464,04/02.0/2026,2000,g 17.1,4.0
# From MPC191591
